STARLINK-1302_new
1 15375C 20019R   21326.16599319 -.00005603  00000-0 -37541-3 0  3266
2 15375  53.0554   8.0055 0001510  64.8130  93.2270 15.06402114    13
STARLINK-1302_old
1 25375C 20019R   21325.12308193  .00003978  00000-0  26645-3 0  3252
2 25375  53.0552  12.6876 0001583  67.5991 191.5174 15.06405666    18
